ONEWEB-0136             
1 47282U 20100AA  25280.38912485  .00000127  00000+0  31795-3 0  9990
2 47282  87.8950  40.8629 0001895 113.2007 246.9321 13.12443824231508
ONEWEB-0137             
1 47283U 20100AB  25281.03307964  .00000137  00000+0  34425-3 0  9998
2 47283  87.8950  40.7405 0001866  94.5507 265.5835 13.12441698231496
ONEWEB-0138             
1 47284U 20100AC  25281.08822606  .00000416  00000+0  11206-2 0  9990
2 47284  87.8947  40.7393 0001792 105.6873 254.4453 13.12441903231589
ONEWEB-0139             
1 47285U 20100AD  25281.05106082 -.00000356  00000+0 -10238-2 0  9990
2 47285  87.8947  40.7371 0001694 100.7081 259.4238 13.12443739231657
ONEWEB-0140             
1 47286U 20100AE  25281.08174282  .00000225  00000+0  59108-3 0  9994
2 47286  87.8949  40.7163 0001754 103.7125 256.4199 13.12442953231625
ONEWEB-0141             
1 47287U 20100AF  25281.05077788 -.00000419  00000+0 -12012-2 0  9994
2 47287  87.8944  40.7361 0001948  92.7868 267.3483 13.12440972231601
ONEWEB-0142             
1 47288U 20100AG  25281.03970892 -.00000091  00000+0 -28924-3 0  9997
2 47288  87.8954  40.7567 0002099  96.4177 263.7191 13.12442427231594
ONEWEB-0143             
1 47289U 20100AH  25281.04928971 -.00000369  00000+0 -10601-2 0  9990
2 47289  87.8951  40.7511 0001674  99.5837 260.5481 13.12441143231575
